KUIPER-00176            
1 65788U 25217AC  25290.16114819  .00033201  00000+0  91013-3 0  9995
2 65788  51.8732 337.8047 0002040  74.0901 286.0311 15.36988059  3346
